{"type":"FeatureCollection","metadata":{"generated":1791524056000,"url":"https://earthquake.usgs.gov/earthquakes/feed/v1.0/summary/significant_month.geojson","title":"USGS Significant Earthquakes, Past Month","status":200,"api":"2.7.0","count":8},"features":[{"type":"Feature","properties":{"mag":6.3,"place":"102 km NE of Norsup, Vanuatu","time":1791450007768,"updated":1791508270737,"tz":null,"url":"https://earthquake.usgs.gov/earthquakes/eventpage/us6000u0xi","detail":"https://earthquake.usgs.gov/earthquakes/feed/v1.0/detail/us6000u0xi.geojson","felt":5,"cdi":7,"mmi":7.654,"alert":"green","status":"reviewed","tsunami":0,"sig":614,"net":"us","code":"6000u0xi","ids":",pt26281001,us6000u0xi,","sources":",pt,us,","types":",dyfi,ground-failure,losspager,moment-tensor,origin,phase-data,shakemap,","nst":93,"dmin":6.761,"rms":1.39,"gap":34,"magType":"mww","type":"earthquake","title":"M 6.3 - 102 km NE of Norsup, Vanuatu"},"geometry":{"type":"Point","coordinates":[168.1889,-15.5411,10]},"id":"us6000u0xi"},
{"type":"Feature","properties":{"mag":5.5,"place":"92 km NNW of Aleneva, Alaska","time":1791311671760,"updated":1791485079520,"tz":null,"url":"https://earthquake.usgs.gov/earthquakes/eventpage/aka2026tuxgky","detail":"https://earthquake.usgs.gov/earthquakes/feed/v1.0/detail/aka2026tuxgky.geojson","felt":342,"cdi":4.6,"mmi":4.215,"alert":"green","status":"reviewed","tsunami":0,"sig":623,"net":"ak","code":"a2026tuxgky","ids":",aka2026tuxgky,us6000u0ju,","sources":",ak,us,","types":",dyfi,event-sequence,losspager,moment-tensor,oaf,origin,phase-data,shakemap,","nst":121,"dmin":0.1,"rms":0.5,"gap":67,"magType":"ml","type":"earthquake","title":"M 5.5 - 92 km NNW of Aleneva, Alaska"},"geometry":{"type":"Point","coordinates":[-153.609,58.802,87.6]},"id":"aka2026tuxgky"},
{"type":"Feature","properties":{"mag":4.7,"place":"5 km NNE of Korumburra, Australia","time":1790956899581,"updated":1790971152074,"tz":null,"url":"https://earthquake.usgs.gov/earthquakes/eventpage/us6000tz1y","detail":"https://earthquake.usgs.gov/earthquakes/feed/v1.0/detail/us6000tz1y.geojson","felt":517,"cdi":5.4,"mmi":5.856,"alert":"green","status":"reviewed","tsunami":0,"sig":619,"net":"us","code":"6000tz1y","ids":",us6000tz1y,","sources":",us,","types":",dyfi,ground-failure,losspager,origin,phase-data,shakemap,","nst":27,"dmin":0.853,"rms":0.69,"gap":62,"magType":"mb","type":"earthquake","title":"M 4.7 - 5 km NNE of Korumburra, Australia"},"geometry":{"type":"Point","coordinates":[145.8401,-38.3802,10]},"id":"us6000tz1y"},
{"type":"Feature","properties":{"mag":4.15,"place":"6 km WNW of Wauna, Washington","time":1790715956370,"updated":1791507880034,"tz":null,"url":"https://earthquake.usgs.gov/earthquakes/eventpage/uw714111952","detail":"https://earthquake.usgs.gov/earthquakes/feed/v1.0/detail/uw714111952.geojson","felt":9567,"cdi":3.8,"mmi":3.452,"alert":"green","status":"reviewed","tsunami":0,"sig":645,"net":"uw","code":"714111952","ids":",ew1790715960,uw714111952,us6000tyf3,","sources":",ew,uw,us,","types":",dyfi,event-sequence,losspager,moment-tensor,oaf,origin,phase-data,shake-alert,shakemap,","nst":180,"dmin":0.04201,"rms":0.21,"gap":22,"magType":"ml","type":"earthquake","title":"M 4.2 - 6 km WNW of Wauna, Washington"},"geometry":{"type":"Point","coordinates":[-122.722,47.4003333333333,27.92]},"id":"uw714111952"},
{"type":"Feature","properties":{"mag":6.6,"place":"80 km ENE of Tadine, New Caledonia","time":1790371383309,"updated":1790458207826,"tz":null,"url":"https://earthquake.usgs.gov/earthquakes/eventpage/us6000txpi","detail":"https://earthquake.usgs.gov/earthquakes/feed/v1.0/detail/us6000txpi.geojson","felt":11,"cdi":6.9,"mmi":5.672,"alert":"green","status":"reviewed","tsunami":0,"sig":678,"net":"us","code":"6000txpi","ids":",pt26268000,us6000txpi,","sources":",pt,us,","types":",dyfi,ground-failure,losspager,moment-tensor,origin,phase-data,shakemap,","nst":102,"dmin":1.696,"rms":0.82,"gap":35,"magType":"mww","type":"earthquake","title":"M 6.6 - 80 km ENE of Tadine, New Caledonia"},"geometry":{"type":"Point","coordinates":[168.61,-21.2982,10]},"id":"us6000txpi"},
{"type":"Feature","properties":{"mag":6.4,"place":"49 km NNE of Kainantu, Papua New Guinea","time":1789895855624,"updated":1789982725530,"tz":null,"url":"https://earthquake.usgs.gov/earthquakes/eventpage/us7000tiqc","detail":"https://earthquake.usgs.gov/earthquakes/feed/v1.0/detail/us7000tiqc.geojson","felt":30,"cdi":5.6,"mmi":5.41,"alert":"green","status":"reviewed","tsunami":0,"sig":647,"net":"us","code":"7000tiqc","ids":",us7000tiqc,","sources":",us,","types":",dyfi,ground-failure,losspager,moment-tensor,origin,phase-data,shakemap,","nst":91,"dmin":3.637,"rms":0.64,"gap":22,"magType":"mww","type":"earthquake","title":"M 6.4 - 49 km NNE of Kainantu, Papua New Guinea"},"geometry":{"type":"Point","coordinates":[146.0922,-5.9021,104.329]},"id":"us7000tiqc"},
{"type":"Feature","properties":{"mag":6.5,"place":"177 km W of Nikolski, Alaska","time":1789654792472,"updated":1791296998561,"tz":null,"url":"https://earthquake.usgs.gov/earthquakes/eventpage/us7000ti1p","detail":"https://earthquake.usgs.gov/earthquakes/feed/v1.0/detail/us7000ti1p.geojson","felt":8,"cdi":3.4,"mmi":4.823,"alert":"green","status":"reviewed","tsunami":1,"sig":653,"net":"us","code":"7000ti1p","ids":",attliih5,aka2026slmipb,us7000ti1p,","sources":",at,ak,us,","types":",dyfi,event-sequence,ground-failure,impact-link,losspager,moment-tensor,oaf,origin,phase-data,shakemap,","nst":150,"dmin":0.899,"rms":0.99,"gap":29,"magType":"mww","type":"earthquake","title":"M 6.5 - 177 km W of Nikolski, Alaska"},"geometry":{"type":"Point","coordinates":[-171.5033,52.9564,98]},"id":"us7000ti1p"},
{"type":"Feature","properties":{"mag":6.5,"place":"121 km NNE of Teluknaga, Indonesia","time":1789161835815,"updated":1791149850912,"tz":null,"url":"https://earthquake.usgs.gov/earthquakes/eventpage/us7000tgrk","detail":"https://earthquake.usgs.gov/earthquakes/feed/v1.0/detail/us7000tgrk.geojson","felt":21,"cdi":3.4,"mmi":3.495,"alert":"green","status":"reviewed","tsunami":0,"sig":657,"net":"us","code":"7000tgrk","ids":",us7000tgrk,","sources":",us,","types":",dyfi,ground-failure,losspager,moment-tensor,origin,phase-data,shakemap,","nst":117,"dmin":5.513,"rms":0.8,"gap":23,"magType":"mww","type":"earthquake","title":"M 6.5 - 121 km NNE of Teluknaga, Indonesia"},"geometry":{"type":"Point","coordinates":[106.8682,-5.0271,372]},"id":"us7000tgrk"}],"bbox":[-171.5033,-38.3802,10,168.61,58.802,372]}